     2.10           GLONASS NAV DATA                        RINEX VERSION / TYPE
SPIDER V4,0,0,3554                      2015 03 24 05:57    PGM / RUN BY / DATE 
  2015     1    15   -2.887099981308e-008                    CORR TO SYSTEM TIME 
    16                                                      LEAP SECONDS        
                                                            END OF HEADER       
18 15 01 15 04 15  0.0 3.375019878149D-05 9.094947017729D-13 1.440000000000D+04
    1.101486523438D+04-4.077014923096D-01-9.313225746155D-10 0.000000000000D+00
   -9.142945800781D+03 2.861727714539D+00-9.313225746155D-10-3.000000000000D+00
    2.111045117188D+04 1.458931922913D+00-9.313225746155D-10 0.000000000000D+00
 9 15 01 15 04 15  0.0-6.425194442272D-06 0.000000000000D+00 1.560000000000D+04
   -2.728402343750D+03 2.894910812378D+00-9.313225746155D-10 0.000000000000D+00
   -1.051721386719D+04-1.276589393616D+00-2.793967723846D-09-2.000000000000D+00
    2.306541503906D+04-2.297582626343D-01-9.313225746155D-10 0.000000000000D+00
 2 15 01 15 04 45  0.0 1.136055216193D-04 1.818989403546D-12 1.620000000000D+04
    1.026387060547D+04-2.086293220520D+00 0.000000000000D+00 0.000000000000D+00
    1.515038183594D+04-1.254068374634D+00 0.000000000000D+00-4.000000000000D+00
    1.781274804688D+04 2.269571304321D+00-2.793967723846D-09 0.000000000000D+00
 3 15 01 15 04 45  0.0 3.308244049549D-05 9.094947017729D-13 1.620000000000D+04
    2.182578564453D+04-1.765193939209D-01 1.862645149231D-09 0.000000000000D+00
    1.305677246094D+04-2.771463394165D-01 1.862645149231D-09 5.000000000000D+00
    2.132344726563D+03 3.550843238831D+00-1.862645149231D-09 0.000000000000D+00
17 15 01 15 04 45  0.0 1.452621072531D-04 9.094947017729D-13 1.620000000000D+04
    8.906467773438D+03 1.469812393188D-01 9.313225746155D-10 0.000000000000D+00
    1.487130468750D+04 2.558515548706D+00 0.000000000000D+00 4.000000000000D+00
    1.872534912109D+04-2.108252525330D+00-2.793967723846D-09 0.000000000000D+00
16 15 01 15 04 45  0.0-2.551637589931D-05 9.094947017729D-13 1.620000000000D+04
    1.691246826172D+04 1.150554656982D+00-9.313225746155D-10 0.000000000000D+00
   -1.588682177734D+04-8.853425979614D-01-0.000000000000D+00-1.000000000000D+00
    1.047381884766D+04-3.199273109436D+00-0.000000000000D+00 0.000000000000D+00
 9 15 01 15 04 45  0.0-6.424263119698D-06 0.000000000000D+00 1.620000000000D+04
    2.183446289063D+03 2.521034240723D+00-9.313225746155D-10 0.000000000000D+00
   -1.313090283203D+04-1.596563339233D+00-1.862645149231D-09-2.000000000000D+00
    2.176504980469D+04-1.205402374268D+00-9.313225746155D-10 0.000000000000D+00
15 15 01 15 04 45  0.0 3.699027001858D-05 9.094947017729D-13 1.620000000000D+04
    2.235822900391D+04-1.120817184448D+00 0.000000000000D+00 0.000000000000D+00
   -8.974043457031D+03 4.038763046265D-01 1.862645149231D-09 0.000000000000D+00
   -8.528455078125D+03-3.348344802856D+00 9.313225746155D-10 0.000000000000D+00
18 15 01 15 04 45  0.0 3.375299274921D-05 9.094947017729D-13 1.620000000000D+04
    1.065629736328D+04 2.324104309082D-02-0.000000000000D+00 0.000000000000D+00
   -3.704535156250D+03 3.131430625916D+00-9.313225746155D-10-3.000000000000D+00
    2.288680664063D+04 5.021858215332D-01-1.862645149231D-09 0.000000000000D+00
19 15 01 15 04 45  0.0-1.156534999609D-04-9.094947017729D-13 1.761000000000D+04
    5.695462402344D+03-1.653165817261D-01-1.862645149231D-09 0.000000000000D+00
   -2.156785498047D+04 1.695891380310D+00-1.862645149231D-09 3.000000000000D+00
    1.238035498047D+04 3.030379295349D+00 0.000000000000D+00 0.000000000000D+00
 4 15 01 15 04 45  0.0 1.054638996720D-04 9.094947017729D-13 1.773000000000D+04
    2.047151708984D+04 1.853035926819D+00 9.313225746155D-10 0.000000000000D+00
    3.026242675781D+03 8.681745529175D-01 2.793967723846D-09 6.000000000000D+00
   -1.491077636719D+04 2.718405723572D+00 0.000000000000D+00 0.000000000000D+00
 2 15 01 15 05 15  0.0 1.136092469096D-04 1.818989403546D-12 1.800000000000D+04
    5.951404785156D+03-2.674258232117D+00 0.000000000000D+00 0.000000000000D+00
    1.300140332031D+04-1.095846176147D+00-0.000000000000D+00-4.000000000000D+00
    2.115921240234D+04 1.424676895142D+00-2.793967723846D-09 0.000000000000D+00
 3 15 01 15 05 15  0.0 3.308430314064D-05 9.094947017729D-13 1.800000000000D+04
    2.076370019531D+04-1.009422302246D+00 1.862645149231D-09 0.000000000000D+00
    1.227646289063D+04-5.488576889038D-01 9.313225746155D-10 5.000000000000D+00
    8.359148437500D+03 3.323017120361D+00-2.793967723846D-09 0.000000000000D+00
17 15 01 15 05 15  0.0 1.452649012208D-04 9.094947017729D-13 1.800000000000D+04
    9.454737304688D+03 4.304571151733D-01 9.313225746155D-10 0.000000000000D+00
    1.892209033203D+04 1.907022476196D+00 0.000000000000D+00 4.000000000000D+00
    1.425613623047D+04-2.825448989868D+00-2.793967723846D-09 0.000000000000D+00
 4 15 01 15 05 15  0.0 1.054666936398D-04 9.094947017729D-13 1.800000000000D+04
    2.331597656250D+04 1.267921447754D+00 1.862645149231D-09 0.000000000000D+00
    4.087652832031D+03 3.308877944946D-01 2.793967723846D-09 6.000000000000D+00
   -9.504335449219D+03 3.249725341797D+00-0.000000000000D+00 0.000000000000D+00
 9 15 01 15 05 15  0.0-6.422400474548D-06 9.094947017729D-13 1.800000000000D+04
    6.222084472656D+03 1.939434051514D+00-9.313225746155D-10 0.000000000000D+00
   -1.613102832031D+04-1.694743156433D+00-9.313225746155D-10-2.000000000000D+00
    1.878302197266D+04-2.086217880249D+00-0.000000000000D+00 0.000000000000D+00
16 15 01 15 05 15  0.0-2.551451325417D-05 9.094947017729D-13 1.800000000000D+04
    1.826453466797D+04 3.601608276367D-01-0.000000000000D+00 0.000000000000D+00
   -1.718936474609D+04-5.198917388916D-01 0.000000000000D+00-1.000000000000D+00
    4.382670898438D+03-3.524448394775D+00 0.000000000000D+00 0.000000000000D+00
18 15 01 15 05 15  0.0 3.375578671694D-05 9.094947017729D-13 1.800000000000D+04
    1.111650000000D+04 4.839448928833D-01-0.000000000000D+00 0.000000000000D+00
    1.944791503906D+03 3.093688011169D+00-0.000000000000D+00-3.000000000000D+00
    2.289568554688D+04-4.921989440918D-01-2.793967723846D-09 0.000000000000D+00
19 15 01 15 05 15  0.0-1.156553626060D-04-9.094947017729D-13 1.800000000000D+04
    5.684666992188D+03 1.827211380005D-01-1.862645149231D-09 0.000000000000D+00
   -1.788134033203D+04 2.364238739014D+00-9.313225746155D-10 3.000000000000D+00
    1.728620947266D+04 2.385200500488D+00-0.000000000000D+00 0.000000000000D+00
 2 15 01 15 05 45  0.0 1.136139035225D-04 1.818989403546D-12 1.980000000000D+04
    7.742451171875D+02-3.033842086792D+00-0.000000000000D+00 0.000000000000D+00
    1.132069189453D+04-7.464427947998D-01-9.313225746155D-10-4.000000000000D+00
    2.287552050781D+04 4.699583053589D-01-2.793967723846D-09 0.000000000000D+00
 3 15 01 15 05 45  0.0 3.308616578579D-05 9.094947017729D-13 1.980000000000D+04
    1.820567578125D+04-1.819338798523D+00 9.313225746155D-10 0.000000000000D+00
    1.123206250000D+04-5.701322555542D-01 0.000000000000D+00 5.000000000000D+00
    1.394115429688D+04 2.839096069336D+00-2.793967723846D-09 0.000000000000D+00
17 15 01 15 05 45  0.0 1.452676951885D-04 9.094947017729D-13 1.980000000000D+04
    1.032330175781D+04 4.939289093018D-01 1.862645149231D-09 0.000000000000D+00
    2.163870410156D+04 1.093203544617D+00 0.000000000000D+00 4.000000000000D+00
    8.684731933594D+03-3.324873924255D+00-2.793967723846D-09 0.000000000000D+00
 4 15 01 15 05 45  0.0 1.054694876075D-04 9.094947017729D-13 1.980000000000D+04
    2.491693945313D+04 4.854202270508D-01 1.862645149231D-09 0.000000000000D+00
    4.314386718750D+03-4.588508605957D-02 1.862645149231D-09 6.000000000000D+00
   -3.362966308594D+03 3.529700279236D+00-9.313225746155D-10 0.000000000000D+00
 9 15 01 15 05 45  0.0-6.418675184250D-06 9.094947017729D-13 1.980000000000D+04
    9.100846679688D+03 1.250661849976D+00-9.313225746155D-10 0.000000000000D+00
   -1.906970410156D+04-1.523974418640D+00-0.000000000000D+00-2.000000000000D+00
    1.435227197266D+04-2.804785728455D+00-0.000000000000D+00 0.000000000000D+00
16 15 01 15 05 45  0.0-2.551265060902D-05 9.094947017729D-13 1.980000000000D+04
    1.827235351563D+04-3.254470825195D-01 0.000000000000D+00 0.000000000000D+00
   -1.762186425781D+04 7.178211212158D-02 9.313225746155D-10-1.000000000000D+00
   -2.049287109375D+03-3.575510025024D+00 0.000000000000D+00 0.000000000000D+00
18 15 01 15 05 45  0.0 3.375951200724D-05 1.818989403546D-12 1.980000000000D+04
    1.235136816406D+04 8.665428161621D-01 0.000000000000D+00 0.000000000000D+00
    7.252881835938D+03 2.757697105408D+00-0.000000000000D+00-3.000000000000D+00
    2.113832470703D+04-1.447636604309D+00-2.793967723846D-09 0.000000000000D+00
19 15 01 15 05 45  0.0-1.156572252512D-04-9.094947017729D-13 1.980000000000D+04
    6.433014648438D+03 6.628217697144D-01-9.313225746155D-10 0.000000000000D+00
   -1.320895117188D+04 2.779983520508D+00-9.313225746155D-10 3.000000000000D+00
    2.085622119141D+04 1.555741310120D+00-9.313225746155D-10 0.000000000000D+00
 2 15 01 15 06 15  0.0 1.136176288128D-04 1.818989403546D-12 2.160000000000D+04
   -4.796270507813D+03-3.104628562927D+00-9.313225746155D-10 0.000000000000D+00
    1.037555859375D+04-2.953472137451D-01-9.313225746155D-10-4.000000000000D+00
    2.282905957031D+04-5.213327407837D-01-1.862645149231D-09 0.000000000000D+00
 3 15 01 15 06 15  0.0 3.308802843094D-05 9.094947017729D-13 2.160000000000D+04
    1.429555419922D+04-2.494108200073D+00 0.000000000000D+00 0.000000000000D+00
    1.036324218750D+04-3.607091903687D-01-0.000000000000D+00 5.000000000000D+00
    1.844842578125D+04 2.136618614197D+00-2.793967723846D-09 0.000000000000D+00
